[{"OBJECT_NAME":"STARLINK-34317","OBJECT_ID":"2025-112S","EPOCH":"2026-03-09T16:43:04.641600","MEAN_MOTION":15.05657663,"ECCENTRICITY":3.544e-5,"INCLINATION":97.6034,"RA_OF_ASC_NODE":121.5954,"ARG_OF_PERICENTER":186.7028,"MEAN_ANOMALY":173.4194,"EPHEMERIS_TYPE":0,"CLASSIFICATION_TYPE":"U","NORAD_CAT_ID":64162,"ELEMENT_SET_NO":999,"REV_AT_EPOCH":4331,"BSTAR":0.00022587386,"MEAN_MOTION_DOT":3.201e-5,"MEAN_MOTION_DDOT":0},{"OBJECT_NAME":"COSMOS 886 DEB","OBJECT_ID":"1976-126BP","EPOCH":"2026-03-09T09:25:45.501600","MEAN_MOTION":13.48223291,"ECCENTRICITY":0.07109258,"INCLINATION":65.7793,"RA_OF_ASC_NODE":49.267,"ARG_OF_PERICENTER":88.0279,"MEAN_ANOMALY":57.007,"EPHEMERIS_TYPE":0,"CLASSIFICATION_TYPE":"U","NORAD_CAT_ID":14502,"ELEMENT_SET_NO":999,"REV_AT_EPOCH":14461,"BSTAR":0.00098756345,"MEAN_MOTION_DOT":2.959e-5,"MEAN_MOTION_DDOT":0}]
